<?xml version="1.0" encoding="UTF-8"?>
<kml xmlns="http://www.opengis.net/kml/2.2" xmlns:gx="http://www.google.com/kml/ext/2.2">
    <Document id="1">
        <Style id="4">
            <LineStyle id="5">
                <color>ff0000ff</color>
                <colorMode>normal</colorMode>
                <width>4</width>
            </LineStyle>
        </Style>
        <Style id="8">
            <LineStyle id="9">
                <color>ff0000ff</color>
                <colorMode>normal</colorMode>
                <width>4</width>
            </LineStyle>
        </Style>
        <Style id="12">
            <LineStyle id="13">
                <color>ff0000ff</color>
                <colorMode>normal</colorMode>
                <width>4</width>
            </LineStyle>
        </Style>
        <Style id="16">
            <LineStyle id="17">
                <color>ff0000ff</color>
                <colorMode>normal</colorMode>
                <width>4</width>
            </LineStyle>
        </Style>
        <Style id="20">
            <LineStyle id="21">
                <color>ff0000ff</color>
                <colorMode>normal</colorMode>
                <width>4</width>
            </LineStyle>
        </Style>
        <Style id="24">
            <LineStyle id="25">
                <color>ff0000ff</color>
                <colorMode>normal</colorMode>
                <width>4</width>
            </LineStyle>
        </Style>
        <Style id="28">
            <LineStyle id="29">
                <color>ff0000ff</color>
                <colorMode>normal</colorMode>
                <width>4</width>
            </LineStyle>
        </Style>
        <Style id="32">
            <LineStyle id="33">
                <color>ff0000ff</color>
                <colorMode>normal</colorMode>
                <width>4</width>
            </LineStyle>
        </Style>
        <Style id="36">
            <LineStyle id="37">
                <color>ff0000ff</color>
                <colorMode>normal</colorMode>
                <width>4</width>
            </LineStyle>
        </Style>
        <Style id="40">
            <LineStyle id="41">
                <color>ff0000ff</color>
                <colorMode>normal</colorMode>
                <width>4</width>
            </LineStyle>
        </Style>
        <Style id="44">
            <LineStyle id="45">
                <color>ff0000ff</color>
                <colorMode>normal</colorMode>
                <width>4</width>
            </LineStyle>
        </Style>
        <Style id="48">
            <LineStyle id="49">
                <color>ff0000ff</color>
                <colorMode>normal</colorMode>
                <width>4</width>
            </LineStyle>
        </Style>
        <Style id="52">
            <LineStyle id="53">
                <color>ff0000ff</color>
                <colorMode>normal</colorMode>
                <width>4</width>
            </LineStyle>
        </Style>
        <Style id="56">
            <LineStyle id="57">
                <color>ff0000ff</color>
                <colorMode>normal</colorMode>
                <width>4</width>
            </LineStyle>
        </Style>
        <Style id="60">
            <LineStyle id="61">
                <color>ff0000ff</color>
                <colorMode>normal</colorMode>
                <width>4</width>
            </LineStyle>
        </Style>
        <Style id="64">
            <LineStyle id="65">
                <color>ff0000ff</color>
                <colorMode>normal</colorMode>
                <width>4</width>
            </LineStyle>
        </Style>
        <Style id="68">
            <LineStyle id="69">
                <color>ff0000ff</color>
                <colorMode>normal</colorMode>
                <width>4</width>
            </LineStyle>
        </Style>
        <Style id="72">
            <LineStyle id="73">
                <color>ff0000ff</color>
                <colorMode>normal</colorMode>
                <width>4</width>
            </LineStyle>
        </Style>
        <Style id="76">
            <LineStyle id="77">
                <color>ff0000ff</color>
                <colorMode>normal</colorMode>
                <width>4</width>
            </LineStyle>
        </Style>
        <Style id="80">
            <LineStyle id="81">
                <color>ff0000ff</color>
                <colorMode>normal</colorMode>
                <width>4</width>
            </LineStyle>
        </Style>
        <Style id="84">
            <LineStyle id="85">
                <color>ff0000ff</color>
                <colorMode>normal</colorMode>
                <width>4</width>
            </LineStyle>
        </Style>
        <Style id="88">
            <LineStyle id="89">
                <color>ff0000ff</color>
                <colorMode>normal</colorMode>
                <width>4</width>
            </LineStyle>
        </Style>
        <Style id="92">
            <LineStyle id="93">
                <color>ff0000ff</color>
                <colorMode>normal</colorMode>
                <width>4</width>
            </LineStyle>
        </Style>
        <Style id="96">
            <LineStyle id="97">
                <color>ff0000ff</color>
                <colorMode>normal</colorMode>
                <width>4</width>
            </LineStyle>
        </Style>
        <Style id="100">
            <LineStyle id="101">
                <color>ff0000ff</color>
                <colorMode>normal</colorMode>
                <width>4</width>
            </LineStyle>
        </Style>
        <Style id="104">
            <LineStyle id="105">
                <color>ff0000ff</color>
                <colorMode>normal</colorMode>
                <width>4</width>
            </LineStyle>
        </Style>
        <Style id="108">
            <LineStyle id="109">
                <color>ff0000ff</color>
                <colorMode>normal</colorMode>
                <width>4</width>
            </LineStyle>
        </Style>
        <Style id="112">
            <LineStyle id="113">
                <color>ff0000ff</color>
                <colorMode>normal</colorMode>
                <width>4</width>
            </LineStyle>
        </Style>
        <Style id="116">
            <LineStyle id="117">
                <color>ff0000ff</color>
                <colorMode>normal</colorMode>
                <width>4</width>
            </LineStyle>
        </Style>
        <Style id="120">
            <LineStyle id="121">
                <color>ff0000ff</color>
                <colorMode>normal</colorMode>
                <width>4</width>
            </LineStyle>
        </Style>
        <Style id="124">
            <LineStyle id="125">
                <color>ff0000ff</color>
                <colorMode>normal</colorMode>
                <width>4</width>
            </LineStyle>
        </Style>
        <Style id="128">
            <LineStyle id="129">
                <color>ff0000ff</color>
                <colorMode>normal</colorMode>
                <width>4</width>
            </LineStyle>
        </Style>
        <Style id="132">
            <LineStyle id="133">
                <color>ff0000ff</color>
                <colorMode>normal</colorMode>
                <width>4</width>
            </LineStyle>
        </Style>
        <Style id="136">
            <LineStyle id="137">
                <color>ff0000ff</color>
                <colorMode>normal</colorMode>
                <width>4</width>
            </LineStyle>
        </Style>
        <Style id="140">
            <LineStyle id="141">
                <color>ff0000ff</color>
                <colorMode>normal</colorMode>
                <width>4</width>
            </LineStyle>
        </Style>
        <Style id="144">
            <LineStyle id="145">
                <color>ff0000ff</color>
                <colorMode>normal</colorMode>
                <width>4</width>
            </LineStyle>
        </Style>
        <Style id="148">
            <LineStyle id="149">
                <color>ff0000ff</color>
                <colorMode>normal</colorMode>
                <width>4</width>
            </LineStyle>
        </Style>
        <Style id="152">
            <LineStyle id="153">
                <color>ff0000ff</color>
                <colorMode>normal</colorMode>
                <width>4</width>
            </LineStyle>
        </Style>
        <Style id="156">
            <LineStyle id="157">
                <color>ff0000ff</color>
                <colorMode>normal</colorMode>
                <width>4</width>
            </LineStyle>
        </Style>
        <Style id="160">
            <LineStyle id="161">
                <color>ff0000ff</color>
                <colorMode>normal</colorMode>
                <width>4</width>
            </LineStyle>
        </Style>
        <Style id="164">
            <LineStyle id="165">
                <color>ff0000ff</color>
                <colorMode>normal</colorMode>
                <width>4</width>
            </LineStyle>
        </Style>
        <Style id="168">
            <LineStyle id="169">
                <color>ff0000ff</color>
                <colorMode>normal</colorMode>
                <width>4</width>
            </LineStyle>
        </Style>
        <Style id="172">
            <LineStyle id="173">
                <color>ff0000ff</color>
                <colorMode>normal</colorMode>
                <width>4</width>
            </LineStyle>
        </Style>
        <Style id="176">
            <LineStyle id="177">
                <color>ff0000ff</color>
                <colorMode>normal</colorMode>
                <width>4</width>
            </LineStyle>
        </Style>
        <Style id="180">
            <LineStyle id="181">
                <color>ff0000ff</color>
                <colorMode>normal</colorMode>
                <width>4</width>
            </LineStyle>
        </Style>
        <Style id="184">
            <LineStyle id="185">
                <color>ff0000ff</color>
                <colorMode>normal</colorMode>
                <width>4</width>
            </LineStyle>
        </Style>
        <Style id="188">
            <LineStyle id="189">
                <color>ff0000ff</color>
                <colorMode>normal</colorMode>
                <width>4</width>
            </LineStyle>
        </Style>
        <Style id="192">
            <LineStyle id="193">
                <color>ff0000ff</color>
                <colorMode>normal</colorMode>
                <width>4</width>
            </LineStyle>
        </Style>
        <Style id="196">
            <LineStyle id="197">
                <color>ff0000ff</color>
                <colorMode>normal</colorMode>
                <width>4</width>
            </LineStyle>
        </Style>
        <Style id="200">
            <LineStyle id="201">
                <color>ff0000ff</color>
                <colorMode>normal</colorMode>
                <width>4</width>
            </LineStyle>
        </Style>
        <Style id="204">
            <LineStyle id="205">
                <color>ff0000ff</color>
                <colorMode>normal</colorMode>
                <width>4</width>
            </LineStyle>
        </Style>
        <Style id="208">
            <LineStyle id="209">
                <color>ff0000ff</color>
                <colorMode>normal</colorMode>
                <width>4</width>
            </LineStyle>
        </Style>
        <Style id="212">
            <LineStyle id="213">
                <color>ff0000ff</color>
                <colorMode>normal</colorMode>
                <width>4</width>
            </LineStyle>
        </Style>
        <Placemark id="3">
            <name>Bus 0</name>
            <styleUrl>#4</styleUrl>
            <LineString id="2">
                <coordinates>32.562732,39.976736,0.0 32.69736880000001,39.88024660000001,0.0 32.7637933,39.9104081,0.0 32.562732,39.976736,0.0</coordinates>
            </LineString>
        </Placemark>
        <Placemark id="7">
            <name>Bus 1</name>
            <styleUrl>#8</styleUrl>
            <LineString id="6">
                <coordinates>32.562732,39.976736,0.0 32.83201913333333,39.97503606666667,0.0 32.534712657142855,40.013207342857136,0.0 32.562732,39.976736,0.0</coordinates>
            </LineString>
        </Placemark>
        <Placemark id="11">
            <name>Bus 2</name>
            <styleUrl>#12</styleUrl>
            <LineString id="10">
                <coordinates>32.562732,39.976736,0.0 32.5570715,39.9995568,0.0 32.6475256,39.9572589,0.0 32.644418466666664,39.9286299,0.0 32.5655549,39.8055024,0.0 32.74948965,39.88099034999999,0.0 32.8316829,39.9805101,0.0 32.8454274,40.0394137,0.0 32.90283305,40.010691,0.0 32.88561125,39.97579505,0.0 32.98035815,39.90781295000001,0.0 32.9634852,39.9581957,0.0 32.562732,39.976736,0.0</coordinates>
            </LineString>
        </Placemark>
        <Placemark id="15">
            <name>Bus 3</name>
            <styleUrl>#16</styleUrl>
            <LineString id="14">
                <coordinates>32.562732,39.976736,0.0 32.526600475,40.015347187500005,0.0 32.56331205555556,39.99232462222222,0.0 32.58185843333333,39.9875836,0.0 32.573368228571425,39.95456066428572,0.0 32.598737254545455,39.958654645454544,0.0 32.61996201666667,39.93131681666667,0.0 32.535399,39.83785335,0.0 32.85829795,39.85176455,0.0 32.79751745,39.9804743,0.0 32.64552453333334,40.0059462,0.0 32.65741979999999,39.9888858,0.0 32.562732,39.976736,0.0</coordinates>
            </LineString>
        </Placemark>
        <Placemark id="19">
            <name>Bus 4</name>
            <styleUrl>#20</styleUrl>
            <LineString id="18">
                <coordinates>32.562732,39.976736,0.0 32.580746733333335,39.938024233333344,0.0 32.6447001,39.900561,0.0 32.7589733,39.9537675,0.0 32.809725,39.9692508,0.0 32.9377748,39.91625415,0.0 32.93786634999999,39.9613084,0.0 32.8097661,40.0140001,0.0 32.767254400000006,40.037054366666666,0.0 32.6239244,39.9798698,0.0 32.562732,39.976736,0.0</coordinates>
            </LineString>
        </Placemark>
        <Placemark id="23">
            <name>Bus 5</name>
            <styleUrl>#24</styleUrl>
            <LineString id="22">
                <coordinates>32.562732,39.976736,0.0 32.93167835,39.90660915,0.0 32.562732,39.976736,0.0</coordinates>
            </LineString>
        </Placemark>
        <Placemark id="27">
            <name>Bus 6</name>
            <styleUrl>#28</styleUrl>
            <LineString id="26">
                <coordinates>32.562732,39.976736,0.0 32.52761785714286,40.01982444285714,0.0 32.57903435714286,39.98337614999999,0.0 32.562732,39.976736,0.0</coordinates>
            </LineString>
        </Placemark>
        <Placemark id="31">
            <name>Bus 7</name>
            <styleUrl>#32</styleUrl>
            <LineString id="30">
                <coordinates>32.562732,39.976736,0.0 32.538925,39.731614,0.0 32.6594463,39.8850339,0.0 32.68010635,39.88976325,0.0 32.6869315,39.8512298,0.0 32.6998107,39.8351161,0.0 32.816762,39.870567,0.0 32.848243,39.8965922,0.0 32.87079500000001,39.8970259,0.0 32.8801831,39.9880919,0.0 32.8252262,39.9258475,0.0 32.801918,39.91856500000001,0.0 32.780086,39.88983820000001,0.0 32.7520139,39.8897009,0.0 32.562732,39.976736,0.0</coordinates>
            </LineString>
        </Placemark>
        <Placemark id="35">
            <name>Bus 8</name>
            <styleUrl>#36</styleUrl>
            <LineString id="34">
                <coordinates>32.562732,39.976736,0.0 32.56137335,39.9773142,0.0 32.50898560000001,39.9893272,0.0 32.58810056923077,39.96920623846154,0.0 32.59628807500001,39.968236808333344,0.0 32.59919049166667,39.95267153333332,0.0 32.562732,39.976736,0.0</coordinates>
            </LineString>
        </Placemark>
        <Placemark id="39">
            <name>Bus 9</name>
            <styleUrl>#40</styleUrl>
            <LineString id="38">
                <coordinates>32.562732,39.976736,0.0 32.56618978636363,39.95924881818182,0.0 32.604385,39.973761,0.0 32.6421758875,39.9512065375,0.0 32.63577612,39.93204664,0.0 32.8920229,39.99918,0.0 32.587483516666666,39.98874203333333,0.0 32.556245,39.99335296666666,0.0 32.51274293333333,40.0105421,0.0 32.53202920714286,40.01877629285714,0.0 32.53893105,40.0175307,0.0 32.562732,39.976736,0.0</coordinates>
            </LineString>
        </Placemark>
        <Placemark id="43">
            <name>Bus 10</name>
            <styleUrl>#44</styleUrl>
            <LineString id="42">
                <coordinates>32.562732,39.976736,0.0 32.53006376666667,40.01088726666667,0.0 32.60019455,40.0029586,0.0 32.61144186666667,39.9931767,0.0 32.5875379,39.9426598,0.0 32.6262258,39.9013082,0.0 32.6988147,39.9633488,0.0 32.7843182,39.9672677,0.0 32.8031725,39.96609765,0.0 32.8766602,39.9287212,0.0 32.8988819,39.9122078,0.0 32.89992175,39.92479055,0.0 32.8137688,39.99712415,0.0 32.7317414,39.9920054,0.0 32.6616518,40.0103366,0.0 32.562732,39.976736,0.0</coordinates>
            </LineString>
        </Placemark>
        <Placemark id="47">
            <name>Bus 11</name>
            <styleUrl>#48</styleUrl>
            <LineString id="46">
                <coordinates>32.562732,39.976736,0.0 32.836019449999995,39.95745295,0.0 32.86302975,40.0136775,0.0 32.840542675,39.999656075,0.0 32.562732,39.976736,0.0</coordinates>
            </LineString>
        </Placemark>
        <Placemark id="51">
            <name>Bus 12</name>
            <styleUrl>#52</styleUrl>
            <LineString id="50">
                <coordinates>32.562732,39.976736,0.0 32.52719588333333,40.000424933333335,0.0 32.575494332000005,39.971939124,0.0 32.6134337,39.984557466666665,0.0 32.86989726666666,39.99389486666667,0.0 32.861102275,39.989998475,0.0 32.67473835,39.8801783,0.0 32.61553481666667,39.94128713333333,0.0 32.59426478333333,39.94585164166666,0.0 32.562732,39.976736,0.0</coordinates>
            </LineString>
        </Placemark>
        <Placemark id="55">
            <name>Bus 13</name>
            <styleUrl>#56</styleUrl>
            <LineString id="54">
                <coordinates>32.562732,39.976736,0.0 32.816129325,39.97796505,0.0 32.618486866666665,39.88861500000001,0.0 32.5601034,39.949195675,0.0 32.562732,39.976736,0.0</coordinates>
            </LineString>
        </Placemark>
        <Placemark id="59">
            <name>Bus 14</name>
            <styleUrl>#60</styleUrl>
            <LineString id="58">
                <coordinates>32.562732,39.976736,0.0 32.58359701818182,39.97114950909091,0.0 32.5699486,39.95062209999999,0.0 32.57493505263158,39.950336452631575,0.0 32.6560016,39.8139783,0.0 32.6495986,39.93235344285714,0.0 32.58588997058823,39.94544285882355,0.0 32.562732,39.976736,0.0</coordinates>
            </LineString>
        </Placemark>
        <Placemark id="63">
            <name>Bus 15</name>
            <styleUrl>#64</styleUrl>
            <LineString id="62">
                <coordinates>32.562732,39.976736,0.0 32.52337792,39.99517222,0.0 32.50787173333333,40.00620223333333,0.0 32.52515066666666,40.00938478333334,0.0 32.619455310000006,39.94855549,0.0 32.8962847,39.9708711,0.0 32.61795453333333,39.999400566666665,0.0 32.611548175,40.002028125,0.0 32.6230276,40.0096212,0.0 32.562732,39.976736,0.0</coordinates>
            </LineString>
        </Placemark>
        <Placemark id="67">
            <name>Bus 16</name>
            <styleUrl>#68</styleUrl>
            <LineString id="66">
                <coordinates>32.562732,39.976736,0.0 32.5011463,40.0099325,0.0 32.726845383333334,39.96188608333333,0.0 32.644483715384624,39.941841415384616,0.0 32.61427448333333,39.954608175,0.0 32.562732,39.976736,0.0</coordinates>
            </LineString>
        </Placemark>
        <Placemark id="71">
            <name>Bus 17</name>
            <styleUrl>#72</styleUrl>
            <LineString id="70">
                <coordinates>32.562732,39.976736,0.0 32.602426162499995,39.99861412499999,0.0 32.6438754,39.9672597,0.0 32.65093055,39.9668566,0.0 32.562732,39.976736,0.0</coordinates>
            </LineString>
        </Placemark>
        <Placemark id="75">
            <name>Bus 18</name>
            <styleUrl>#76</styleUrl>
            <LineString id="74">
                <coordinates>32.562732,39.976736,0.0 32.7674041,39.7521727,0.0 32.564986,40.0347414,0.0 32.562732,39.976736,0.0</coordinates>
            </LineString>
        </Placemark>
        <Placemark id="79">
            <name>Bus 19</name>
            <styleUrl>#80</styleUrl>
            <LineString id="78">
                <coordinates>32.562732,39.976736,0.0 32.65460207272727,39.94744739090909,0.0 32.60051030769231,39.96624706153846,0.0 32.562732,39.976736,0.0</coordinates>
            </LineString>
        </Placemark>
        <Placemark id="83">
            <name>Bus 20</name>
            <styleUrl>#84</styleUrl>
            <LineString id="82">
                <coordinates>32.562732,39.976736,0.0 32.51718746666666,39.99703735,0.0 32.5735374375,39.96372655,0.0 32.574970604166666,39.95944426666667,0.0 32.56902076000001,39.95524408666667,0.0 32.590659966666664,39.95047803333334,0.0 32.593770354545455,39.93940383636363,0.0 32.6429933,39.9931643,0.0 32.6518223,39.99673315,0.0 32.804720466666666,39.991934066666666,0.0 32.613588225,39.936264725,0.0 32.611344836363635,39.93159791818182,0.0 32.562732,39.976736,0.0</coordinates>
            </LineString>
        </Placemark>
        <Placemark id="87">
            <name>Bus 21</name>
            <styleUrl>#88</styleUrl>
            <LineString id="86">
                <coordinates>32.562732,39.976736,0.0 32.6207694,39.93842635,0.0 32.562732,39.976736,0.0</coordinates>
            </LineString>
        </Placemark>
        <Placemark id="91">
            <name>Bus 22</name>
            <styleUrl>#92</styleUrl>
            <LineString id="90">
                <coordinates>32.562732,39.976736,0.0 32.6109714,39.97555719,0.0 32.61052496666667,39.95195105833334,0.0 32.59417533448276,39.95599149655172,0.0 32.58401081666667,39.95187428333334,0.0 32.42407400000001,39.85444759999997,0.0 32.7016155,39.8921541,0.0 32.742676,39.9603589,0.0 32.84518421428572,39.98236265714286,0.0 32.84940705,39.9888112,0.0 32.8951958,39.9781204,0.0 32.87568705,39.997925825,0.0 32.562732,39.976736,0.0</coordinates>
            </LineString>
        </Placemark>
        <Placemark id="95">
            <name>Bus 23</name>
            <styleUrl>#96</styleUrl>
            <LineString id="94">
                <coordinates>32.562732,39.976736,0.0 32.582466475000004,39.99633815,0.0 32.59689628,39.99851714,0.0 32.61296525,39.9795935,0.0 32.664960975,39.9518037625,0.0 32.789302150000005,39.96570485,0.0 32.7084065,39.8752019,0.0 32.57889674285714,39.95495738571429,0.0 32.6136146,39.9633423,0.0 32.562732,39.976736,0.0</coordinates>
            </LineString>
        </Placemark>
        <Placemark id="99">
            <name>Bus 24</name>
            <styleUrl>#100</styleUrl>
            <LineString id="98">
                <coordinates>32.562732,39.976736,0.0 32.5887873,39.96496201111111,0.0 32.59347034615384,39.96529553076924,0.0 32.63128686666666,39.999404266666666,0.0 32.8579616,39.9575834,0.0 32.59329371666667,39.93392911666667,0.0 32.566675944444434,39.94583434444445,0.0 32.576760766666666,39.944681825,0.0 32.562732,39.976736,0.0</coordinates>
            </LineString>
        </Placemark>
        <Placemark id="103">
            <name>Bus 25</name>
            <styleUrl>#104</styleUrl>
            <LineString id="102">
                <coordinates>32.562732,39.976736,0.0 32.7085703,39.95579705,0.0 32.51864033333333,40.0051373,0.0 32.562732,39.976736,0.0</coordinates>
            </LineString>
        </Placemark>
        <Placemark id="107">
            <name>Bus 26</name>
            <styleUrl>#108</styleUrl>
            <LineString id="106">
                <coordinates>32.562732,39.976736,0.0 32.691308,39.8970734,0.0 32.562732,39.976736,0.0</coordinates>
            </LineString>
        </Placemark>
        <Placemark id="111">
            <name>Bus 27</name>
            <styleUrl>#112</styleUrl>
            <LineString id="110">
                <coordinates>32.562732,39.976736,0.0 32.59219686666666,39.97901426666666,0.0 32.616999675,39.9727601,0.0 32.62799852727273,39.94897649090908,0.0 32.562732,39.976736,0.0</coordinates>
            </LineString>
        </Placemark>
        <Placemark id="115">
            <name>Bus 28</name>
            <styleUrl>#116</styleUrl>
            <LineString id="114">
                <coordinates>32.562732,39.976736,0.0 32.6023084,39.9300463,0.0 32.7992532,39.8945662,0.0 32.6914019,39.962468,0.0 32.7847733,39.9867988,0.0 32.8507308,39.997107766666666,0.0 32.793195600000004,39.95754495,0.0 32.78000900000001,39.976402,0.0 32.869391799999995,39.91005733333333,0.0 33.0563914,39.9124056,0.0 32.88623,39.889131,0.0 32.562732,39.976736,0.0</coordinates>
            </LineString>
        </Placemark>
        <Placemark id="119">
            <name>Bus 29</name>
            <styleUrl>#120</styleUrl>
            <LineString id="118">
                <coordinates>32.562732,39.976736,0.0 32.598078380000004,39.9878509,0.0 32.6921729,39.9747719,0.0 32.8314103,39.8570265,0.0 32.6051351,39.8346129,0.0 32.63830245,39.939395350000005,0.0 32.647820833333334,39.95023605555556,0.0 32.66345345,39.94077795,0.0 32.562732,39.976736,0.0</coordinates>
            </LineString>
        </Placemark>
        <Placemark id="123">
            <name>Bus 30</name>
            <styleUrl>#124</styleUrl>
            <LineString id="122">
                <coordinates>32.562732,39.976736,0.0 32.5411368,39.95484570000001,0.0 32.3107517,40.0190344,0.0 32.5117187,40.01862623333333,0.0 32.5803981,39.9283587,0.0 32.6573743,39.9803596,0.0 32.7049775,39.9022497,0.0 32.88721185,39.92711645,0.0 32.85187236666667,40.01810283333333,0.0 32.7233261,39.99442519999999,0.0 32.72930905,39.9558759,0.0 32.562732,39.976736,0.0</coordinates>
            </LineString>
        </Placemark>
        <Placemark id="127">
            <name>Bus 31</name>
            <styleUrl>#128</styleUrl>
            <LineString id="126">
                <coordinates>32.562732,39.976736,0.0 32.655280366666666,39.9723801,0.0 32.562732,39.976736,0.0</coordinates>
            </LineString>
        </Placemark>
        <Placemark id="131">
            <name>Bus 32</name>
            <styleUrl>#132</styleUrl>
            <LineString id="130">
                <coordinates>32.562732,39.976736,0.0 32.60306326,39.97938499999999,0.0 32.562732,39.976736,0.0</coordinates>
            </LineString>
        </Placemark>
        <Placemark id="135">
            <name>Bus 33</name>
            <styleUrl>#136</styleUrl>
            <LineString id="134">
                <coordinates>32.562732,39.976736,0.0 32.7096666,39.9928663,0.0 32.7211374,39.9790306,0.0 32.72975426666667,39.96996116666667,0.0 32.873510475,40.009903925,0.0 32.8520302,39.9743288,0.0 32.871899033333335,39.96737866666667,0.0 32.8829176,39.938947,0.0 32.9114296,39.9120322,0.0 32.71525825,39.82813885,0.0 32.562732,39.976736,0.0</coordinates>
            </LineString>
        </Placemark>
        <Placemark id="139">
            <name>Bus 34</name>
            <styleUrl>#140</styleUrl>
            <LineString id="138">
                <coordinates>32.562732,39.976736,0.0 32.3292369,40.0177946,0.0 32.5389911,40.0083059,0.0 32.6944347,39.9845954,0.0 32.740723,40.0129334,0.0 32.8487361,39.9549107,0.0 32.9253605,39.9780279,0.0 32.9608261,39.9724559,0.0 32.8750463,39.9060914,0.0 32.8679062,39.88181609999999,0.0 32.505111,39.779293,0.0 32.5773121,39.8131225,0.0 32.562732,39.976736,0.0</coordinates>
            </LineString>
        </Placemark>
        <Placemark id="143">
            <name>Bus 35</name>
            <styleUrl>#144</styleUrl>
            <LineString id="142">
                <coordinates>32.562732,39.976736,0.0 32.8588101,39.932722175,0.0 32.631469075,39.975999425,0.0 32.58304352307692,39.99244723076924,0.0 32.562732,39.976736,0.0</coordinates>
            </LineString>
        </Placemark>
        <Placemark id="147">
            <name>Bus 36</name>
            <styleUrl>#148</styleUrl>
            <LineString id="146">
                <coordinates>32.562732,39.976736,0.0 32.602767175,39.962490075,0.0 32.64070205,39.933426075,0.0 32.64264395,39.85932255,0.0 32.8649978,40.01861995,0.0 32.868536240000005,40.00693308,0.0 32.9024466,40.0005267,0.0 32.8868511,39.991231975000005,0.0 32.89847605,39.94229735,0.0 32.8211999,39.8778105,0.0 32.819762,39.890877,0.0 32.562732,39.976736,0.0</coordinates>
            </LineString>
        </Placemark>
        <Placemark id="151">
            <name>Bus 37</name>
            <styleUrl>#152</styleUrl>
            <LineString id="150">
                <coordinates>32.562732,39.976736,0.0 32.5568121,39.97050725,0.0 32.57056719,39.97028523,0.0 32.575261600000005,39.9933038,0.0 32.62709076,39.98745808,0.0 32.65695212,39.93494526,0.0 32.8912256,39.9447982,0.0 32.8750852,39.957323,0.0 32.562732,39.976736,0.0</coordinates>
            </LineString>
        </Placemark>
        <Placemark id="155">
            <name>Bus 38</name>
            <styleUrl>#156</styleUrl>
            <LineString id="154">
                <coordinates>32.562732,39.976736,0.0 32.56263095416667,39.9548671125,0.0 32.65210927333334,39.94397538,0.0 32.7299384,39.9782679,0.0 32.562732,39.976736,0.0</coordinates>
            </LineString>
        </Placemark>
        <Placemark id="159">
            <name>Bus 39</name>
            <styleUrl>#160</styleUrl>
            <LineString id="158">
                <coordinates>32.562732,39.976736,0.0 32.1476388,39.5776674,0.0 32.648696900000004,39.9819941,0.0 32.7953016,39.9907557,0.0 32.8023371,39.9862099,0.0 32.81657,39.962029,0.0 32.850257,40.03320679999999,0.0 32.8563952,40.0244784,0.0 32.9138078,39.9651506,0.0 32.88284285,39.9198482,0.0 32.9219309,39.9157116,0.0 32.96798615,39.9035674,0.0 32.8295055,39.7887308,0.0 32.818320166666666,39.88522436666667,0.0 32.8057286,39.9025173,0.0 32.81390005,39.92713435,0.0 32.562732,39.976736,0.0</coordinates>
            </LineString>
        </Placemark>
        <Placemark id="163">
            <name>Bus 40</name>
            <styleUrl>#164</styleUrl>
            <LineString id="162">
                <coordinates>32.562732,39.976736,0.0 32.66649764,39.9464777,0.0 32.562732,39.976736,0.0</coordinates>
            </LineString>
        </Placemark>
        <Placemark id="167">
            <name>Bus 41</name>
            <styleUrl>#168</styleUrl>
            <LineString id="166">
                <coordinates>32.562732,39.976736,0.0 32.60742523333334,39.986385866666666,0.0 32.7081253,39.98143493333333,0.0 32.7121037,39.9750187,0.0 32.72432435,39.95155595,0.0 32.78737410000001,39.9718485,0.0 32.85411643333333,40.00882713333333,0.0 32.88499018,40.00322098,0.0 32.93905395,39.96962475,0.0 32.87942605,39.9505352,0.0 32.8565208,39.91602465,0.0 32.854798849999995,39.90178825,0.0 32.9135937,39.9206258,0.0 32.9212265,39.8451842,0.0 32.7181375,39.7805245,0.0 32.562732,39.976736,0.0</coordinates>
            </LineString>
        </Placemark>
        <Placemark id="171">
            <name>Bus 42</name>
            <styleUrl>#172</styleUrl>
            <LineString id="170">
                <coordinates>32.562732,39.976736,0.0 32.85950915,39.98353725,0.0 32.562732,39.976736,0.0</coordinates>
            </LineString>
        </Placemark>
        <Placemark id="175">
            <name>Bus 43</name>
            <styleUrl>#176</styleUrl>
            <LineString id="174">
                <coordinates>32.562732,39.976736,0.0 32.53116658888889,40.00496268888889,0.0 32.57345106428571,39.98912468571429,0.0 32.58398408888889,39.96737196666666,0.0 32.58651461333333,39.95543834666667,0.0 32.646743,39.94516983,0.0 32.6499307,39.8640858,0.0 32.556165433333334,39.95794663333333,0.0 32.562732,39.976736,0.0</coordinates>
            </LineString>
        </Placemark>
        <Placemark id="179">
            <name>Bus 44</name>
            <styleUrl>#180</styleUrl>
            <LineString id="178">
                <coordinates>32.562732,39.976736,0.0 32.798575549999995,39.88368405,0.0 32.562732,39.976736,0.0</coordinates>
            </LineString>
        </Placemark>
        <Placemark id="183">
            <name>Bus 45</name>
            <styleUrl>#184</styleUrl>
            <LineString id="182">
                <coordinates>32.562732,39.976736,0.0 32.378292,40.03098800000001,0.0 32.5546271,39.8471994,0.0 32.653587,39.757964,0.0 32.83511643333333,39.8908614,0.0 32.8206309,39.91775015,0.0 32.850263,39.9235362,0.0 32.9166357,39.899684,0.0 32.865589,39.97611845,0.0 32.8595814,40.0052411,0.0 32.82883796666667,39.99940463333333,0.0 32.83940665,39.99322625,0.0 32.8593758,39.967316,0.0 32.86206689999999,39.9462402,0.0 32.562732,39.976736,0.0</coordinates>
            </LineString>
        </Placemark>
        <Placemark id="187">
            <name>Bus 46</name>
            <styleUrl>#188</styleUrl>
            <LineString id="186">
                <coordinates>32.562732,39.976736,0.0 32.603977566666664,39.94381903333333,0.0 32.6314313076923,39.95271181538462,0.0 32.63407273846154,39.94992338461539,0.0 32.84586936666667,40.008283383333335,0.0 32.59440371666667,39.99358804166666,0.0 32.5239648,40.003933175,0.0 32.563615625,39.9853024375,0.0 32.562732,39.976736,0.0</coordinates>
            </LineString>
        </Placemark>
        <Placemark id="191">
            <name>Bus 47</name>
            <styleUrl>#192</styleUrl>
            <LineString id="190">
                <coordinates>32.562732,39.976736,0.0 32.52247526153846,40.02273260769231,0.0 32.56508008181818,39.95126228181818,0.0 32.59115514285714,39.95968834642857,0.0 32.604184700000005,39.95537165,0.0 32.6318813,39.94557703333333,0.0 32.63615715,39.9702661,0.0 32.6414407,39.98137786,0.0 32.644160680000006,39.97481528,0.0 32.562732,39.976736,0.0</coordinates>
            </LineString>
        </Placemark>
        <Placemark id="195">
            <name>Bus 48</name>
            <styleUrl>#196</styleUrl>
            <LineString id="194">
                <coordinates>32.562732,39.976736,0.0 32.57800412,39.9635309,0.0 32.5167982,40.01256501666667,0.0 32.56922076,39.98504274,0.0 32.582004866666665,39.95956176666666,0.0 32.56960162,39.9418175,0.0 32.60990183333334,39.94589556666666,0.0 32.806539,39.9753883,0.0 32.86268135,39.9962033,0.0 32.89302596666666,39.93310043333333,0.0 32.75571655,39.98119875,0.0 32.636688945454544,39.94612580909091,0.0 32.562732,39.976736,0.0</coordinates>
            </LineString>
        </Placemark>
        <Placemark id="199">
            <name>Bus 49</name>
            <styleUrl>#200</styleUrl>
            <LineString id="198">
                <coordinates>32.562732,39.976736,0.0 32.5499,40.01833,0.0 32.5712101,39.9283075,0.0 32.541087,39.8612552,0.0 32.7237843,39.8571568,0.0 32.658775133333336,39.966891366666665,0.0 32.6786008,39.9819781,0.0 32.7053834,39.9703578,0.0 32.8230541,39.9947425,0.0 32.9119703,39.9742659,0.0 32.8850429,40.0321634,0.0 32.8426355,40.0482492,0.0 32.562732,39.976736,0.0</coordinates>
            </LineString>
        </Placemark>
        <Placemark id="203">
            <name>Bus 50</name>
            <styleUrl>#204</styleUrl>
            <LineString id="202">
                <coordinates>32.562732,39.976736,0.0 32.61772306666666,39.991254700000006,0.0 32.562732,39.976736,0.0</coordinates>
            </LineString>
        </Placemark>
        <Placemark id="207">
            <name>Bus 51</name>
            <styleUrl>#208</styleUrl>
            <LineString id="206">
                <coordinates>32.562732,39.976736,0.0 32.87563014,40.00370818,0.0 32.562732,39.976736,0.0</coordinates>
            </LineString>
        </Placemark>
        <Placemark id="211">
            <name>Bus 52</name>
            <styleUrl>#212</styleUrl>
            <LineString id="210">
                <coordinates>32.562732,39.976736,0.0 32.6539887125,39.9394262625,0.0 32.562732,39.976736,0.0</coordinates>
            </LineString>
        </Placemark>
    </Document>
</kml>
